RCM-1                   
1 44322U 19033A   26204.89398476  .00000571  00000+0  60960-4 0  9996
2 44322  97.7606 211.8228 0001521  91.4226  26.4968 14.92586448387553
RCM-3                   
1 44323U 19033B   26204.82762522  .00000144  00000+0  19395-4 0  9999
2 44323  97.7605 211.8518 0001547  89.8537 270.2860 14.92586209387565
RCM-2                   
1 44324U 19033C   26204.84983128  .00000702  00000+0  73708-4 0  9997
2 44324  97.7604 211.8241 0001498  89.4960 270.6431 14.92587707387550
