{"fetched_at":"2026-07-24T07:06:47.888Z","source":"https://celestrak.org/NORAD/elements/gp.php?NAME=RCM&FORMAT=JSON","constellation":"rcm","records":[{"OBJECT_NAME":"RCM-1","OBJECT_ID":"2019-033A","EPOCH":"2026-07-23T21:27:20.283264","CLASSIFICATION_TYPE":"U","MEAN_MOTION":14.92586448,"ECCENTRICITY":0.0001521,"INCLINATION":97.7606,"RA_OF_ASC_NODE":211.8228,"ARG_OF_PERICENTER":91.4226,"MEAN_ANOMALY":26.4968,"EPHEMERIS_TYPE":0,"NORAD_CAT_ID":44322,"ELEMENT_SET_NO":999,"REV_AT_EPOCH":38755,"BSTAR":0.00006096,"MEAN_MOTION_DOT":0.00000571,"MEAN_MOTION_DDOT":0},{"OBJECT_NAME":"RCM-3","OBJECT_ID":"2019-033B","EPOCH":"2026-07-23T19:51:46.819008","CLASSIFICATION_TYPE":"U","MEAN_MOTION":14.92586209,"ECCENTRICITY":0.0001547,"INCLINATION":97.7605,"RA_OF_ASC_NODE":211.8518,"ARG_OF_PERICENTER":89.8537,"MEAN_ANOMALY":270.286,"EPHEMERIS_TYPE":0,"NORAD_CAT_ID":44323,"ELEMENT_SET_NO":999,"REV_AT_EPOCH":38756,"BSTAR":0.000019395,"MEAN_MOTION_DOT":0.00000144,"MEAN_MOTION_DDOT":0},{"OBJECT_NAME":"RCM-2","OBJECT_ID":"2019-033C","EPOCH":"2026-07-23T20:23:45.422592","CLASSIFICATION_TYPE":"U","MEAN_MOTION":14.92587707,"ECCENTRICITY":0.0001498,"INCLINATION":97.7604,"RA_OF_ASC_NODE":211.8241,"ARG_OF_PERICENTER":89.496,"MEAN_ANOMALY":270.6431,"EPHEMERIS_TYPE":0,"NORAD_CAT_ID":44324,"ELEMENT_SET_NO":999,"REV_AT_EPOCH":38755,"BSTAR":0.000073708,"MEAN_MOTION_DOT":0.00000702,"MEAN_MOTION_DDOT":0}]}
